[{"spaceTrack":{"CCSDS_OMM_VERS":"2.0","COMMENT":"GENERATED VIA SPACE-TRACK.ORG API","CREATION_DATE":"2021-10-25T22:36:11","ORIGINATOR":"18 SPCS","OBJECT_NAME":"STARLINK-2757","OBJECT_ID":"2021-041BD","CENTER_NAME":"EARTH","REF_FRAME":"TEME","TIME_SYSTEM":"UTC","MEAN_ELEMENT_THEORY":"SGP4","EPOCH":"2021-10-25T11:12:30.205728","MEAN_MOTION":15.06401717,"ECCENTRICITY":0.0001953,"INCLINATION":53.0549,"RA_OF_ASC_NODE":107.3342,"ARG_OF_PERICENTER":85.7151,"MEAN_ANOMALY":274.4061,"EPHEMERIS_TYPE":0,"CLASSIFICATION_TYPE":"U","NORAD_CAT_ID":48604,"ELEMENT_SET_NO":999,"REV_AT_EPOCH":2574,"BSTAR":0.00009818,"MEAN_MOTION_DOT":0.00001181,"MEAN_MOTION_DDOT":0,"SEMIMAJOR_AXIS":6925.343,"PERIOD":95.592,"APOAPSIS":548.561,"PERIAPSIS":545.856,"OBJECT_TYPE":"PAYLOAD","RCS_SIZE":"LARGE","COUNTRY_CODE":"US","LAUNCH_DATE":"2021-05-15","SITE":"AFETR","DECAY_DATE":null,"DECAYED":0,"FILE":3183696,"GP_ID":188151378,"TLE_LINE0":"0 STARLINK-2757","TLE_LINE1":"1 48604U 21041BD  21298.46701627  .00001181  00000-0  98180-4 0  9996","TLE_LINE2":"2 48604  53.0549 107.3342 0001953  85.7151 274.4061 15.06401717 25749"},"height_km":563.9927902563413,"latitude":-45.935424464471915,"launch":"605b4b95aa5433645e37d041","longitude":142.36932477531525,"velocity_kms":7.578394083174697,"version":"v1.0","id":"60afe667cd07980006057d35"},{"spaceTrack":{"CCSDS_OMM_VERS":"2.0","COMMENT":"GENERATED VIA SPACE-TRACK.ORG API","CREATION_DATE":"2021-10-26T07:06:12","ORIGINATOR":"18 SPCS","OBJECT_NAME":"STARLINK-2275","OBJECT_ID":"2021-041AZ","CENTER_NAME":"EARTH","REF_FRAME":"TEME","TIME_SYSTEM":"UTC","MEAN_ELEMENT_THEORY":"SGP4","EPOCH":"2021-10-25T22:54:27.043488","MEAN_MOTION":15.06393919,"ECCENTRICITY":0.0001802,"INCLINATION":53.052,"RA_OF_ASC_NODE":95.1514,"ARG_OF_PERICENTER":81.8577,"MEAN_ANOMALY":278.2616,"EPHEMERIS_TYPE":0,"CLASSIFICATION_TYPE":"U","NORAD_CAT_ID":48600,"ELEMENT_SET_NO":999,"REV_AT_EPOCH":2595,"BSTAR":-0.000028953,"MEAN_MOTION_DOT":-0.00000713,"MEAN_MOTION_DDOT":0,"SEMIMAJOR_AXIS":6925.367,"PERIOD":95.593,"APOAPSIS":548.48,"PERIAPSIS":545.984,"OBJECT_TYPE":"PAYLOAD","RCS_SIZE":"LARGE","COUNTRY_CODE":"US","LAUNCH_DATE":"2021-05-15","SITE":"AFETR","DECAY_DATE":null,"DECAYED":0,"FILE":3184326,"GP_ID":188163999,"TLE_LINE0":"0 STARLINK-2275","TLE_LINE1":"1 48600U 21041AZ  21298.95447967 -.00000713  00000-0 -28953-4 0  9993","TLE_LINE2":"2 48600  53.0520  95.1514 0001802  81.8577 278.2616 15.06393919 25956"},"height_km":547.4232973528224,"latitude":6.882870569525726,"launch":"605b4b95aa5433645e37d041","longitude":-2.2016470895106193,"velocity_kms":7.5900648560647355,"version":"v1.0","id":"60afe667cd07980006057d36"},{"spaceTrack":{"CCSDS_OMM_VERS":"2.0","COMMENT":"GENERATED VIA SPACE-TRACK.ORG API","CREATION_DATE":"2021-08-24T22:06:10","ORIGINATOR":"18 SPCS","OBJECT_NAME":"STARLINK-2276","OBJECT_ID":"2021-041BA","CENTER_NAME":"EARTH","REF_FRAME":"TEME","TIME_SYSTEM":"UTC","MEAN_ELEMENT_THEORY":"SGP4","EPOCH":"2021-08-24T18:23:09.851136","MEAN_MOTION":16.28904837,"ECCENTRICITY":0.001257,"INCLINATION":53.0429,"RA_OF_ASC_NODE":349.1178,"ARG_OF_PERICENTER":330.8779,"MEAN_ANOMALY":29.3988,"EPHEMERIS_TYPE":0,"CLASSIFICATION_TYPE":"U","NORAD_CAT_ID":48601,"ELEMENT_SET_NO":999,"REV_AT_EPOCH":1693,"BSTAR":0.0021469,"MEAN_MOTION_DOT":0.09285607,"MEAN_MOTION_DDOT":0.000012212,"SEMIMAJOR_AXIS":6573.622,"PERIOD":88.403,"APOAPSIS":203.75,"PERIAPSIS":187.224,"OBJECT_TYPE":"PAYLOAD","RCS_SIZE":"LARGE","COUNTRY_CODE":"US","LAUNCH_DATE":"2021-05-15","SITE":"AFETR","DECAY_DATE":"2021-08-25","DECAYED":1,"FILE":3102468,"GP_ID":183362917,"TLE_LINE0":"0 STARLINK-2276","TLE_LINE1":"1 48601U 21041BA  21236.76608624  .09285607  12212-4  21469-2 0  9993","TLE_LINE2":"2 48601  53.0429 349.1178 0012570 330.8779  29.3988 16.28904837 16935"},"height_km":null,"latitude":null,"launch":"605b4b95aa5433645e37d041","longitude":null,"velocity_kms":null,"version":"v1.0","id":"60afe667cd07980006057d37"},{"spaceTrack":{"CCSDS_OMM_VERS":"2.0","COMMENT":"GENERATED VIA SPACE-TRACK.ORG API","CREATION_DATE":"2021-10-26T07:06:12","ORIGINATOR":"18 SPCS","OBJECT_NAME":"STARLINK-2713","OBJECT_ID":"2021-041BB","CENTER_NAME":"EARTH","REF_FRAME":"TEME","TIME_SYSTEM":"UTC","MEAN_ELEMENT_THEORY":"SGP4","EPOCH":"2021-10-25T19:37:24.308544","MEAN_MOTION":15.06396701,"ECCENTRICITY":0.0001655,"INCLINATION":53.0396,"RA_OF_ASC_NODE":80.8375,"ARG_OF_PERICENTER":86.953,"MEAN_ANOMALY":273.1649,"EPHEMERIS_TYPE":0,"CLASSIFICATION_TYPE":"U","NORAD_CAT_ID":48602,"ELEMENT_SET_NO":999,"REV_AT_EPOCH":2614,"BSTAR":0.0001052,"MEAN_MOTION_DOT":0.00001286,"MEAN_MOTION_DDOT":0,"SEMIMAJOR_AXIS":6925.359,"PERIOD":95.592,"APOAPSIS":548.37,"PERIAPSIS":546.078,"OBJECT_TYPE":"PAYLOAD","RCS_SIZE":"LARGE","COUNTRY_CODE":"US","LAUNCH_DATE":"2021-05-15","SITE":"AFETR","DECAY_DATE":null,"DECAYED":0,"FILE":3184326,"GP_ID":188163995,"TLE_LINE0":"0 STARLINK-2713","TLE_LINE1":"1 48602U 21041BB  21298.81764246  .00001286  00000-0  10520-3 0  9996","TLE_LINE2":"2 48602  53.0396  80.8375 0001655  86.9530 273.1649 15.06396701 26140"},"height_km":550.4844830286393,"latitude":-11.15134306893272,"launch":"605b4b95aa5433645e37d041","longitude":-3.4679047054712466,"velocity_kms":7.586997595022023,"version":"v1.0","id":"60afe667cd07980006057d38"},{"spaceTrack":{"CCSDS_OMM_VERS":"2.0","COMMENT":"GENERATED VIA SPACE-TRACK.ORG API","CREATION_DATE":"2021-10-26T07:06:12","ORIGINATOR":"18 SPCS","OBJECT_NAME":"STARLINK-2731","OBJECT_ID":"2021-044P","CENTER_NAME":"EARTH","REF_FRAME":"TEME","TIME_SYSTEM":"UTC","MEAN_ELEMENT_THEORY":"SGP4","EPOCH":"2021-10-25T21:52:05.084544","MEAN_MOTION":15.06394822,"ECCENTRICITY":0.0001733,"INCLINATION":53.0544,"RA_OF_ASC_NODE":85.3334,"ARG_OF_PERICENTER":90.6372,"MEAN_ANOMALY":269.4816,"EPHEMERIS_TYPE":0,"CLASSIFICATION_TYPE":"U","NORAD_CAT_ID":48651,"ELEMENT_SET_NO":999,"REV_AT_EPOCH":2402,"BSTAR":-0.000028528,"MEAN_MOTION_DOT":-0.00000706,"MEAN_MOTION_DDOT":0,"SEMIMAJOR_AXIS":6925.364,"PERIOD":95.592,"APOAPSIS":548.43,"PERIAPSIS":546.029,"OBJECT_TYPE":"PAYLOAD","RCS_SIZE":"LARGE","COUNTRY_CODE":"US","LAUNCH_DATE":"2021-05-26","SITE":"AFETR","DECAY_DATE":null,"DECAYED":0,"FILE":3184310,"GP_ID":188164978,"TLE_LINE0":"0 STARLINK-2731","TLE_LINE1":"1 48651U 21044P   21298.91116996 -.00000706  00000-0 -28528-4 0  9993","TLE_LINE2":"2 48651  53.0544  85.3334 0001733  90.6372 269.4816 15.06394822 24028"},"height_km":549.0483467028162,"latitude":35.327877867188086,"launch":"6079bd399a06446e8c61bf77","longitude":-155.01204747322737,"velocity_kms":7.592426669696983,"version":"v1.0","id":"60b7c1567ee2f800065fcf27"},{"spaceTrack":{"CCSDS_OMM_VERS":"2.0","COMMENT":"GENERATED VIA SPACE-TRACK.ORG API","CREATION_DATE":"2021-10-25T18:30:04","ORIGINATOR":"18 SPCS","OBJECT_NAME":"STARLINK-2717","OBJECT_ID":"2021-044X","CENTER_NAME":"EARTH","REF_FRAME":"TEME","TIME_SYSTEM":"UTC","MEAN_ELEMENT_THEORY":"SGP4","EPOCH":"2021-10-25T05:14:15.789984","MEAN_MOTION":15.06392588,"ECCENTRICITY":0.0001904,"INCLINATION":53.0559,"RA_OF_ASC_NODE":88.4525,"ARG_OF_PERICENTER":85.9807,"MEAN_ANOMALY":274.14,"EPHEMERIS_TYPE":0,"CLASSIFICATION_TYPE":"U","NORAD_CAT_ID":48659,"ELEMENT_SET_NO":999,"REV_AT_EPOCH":2308,"BSTAR":0.00009287,"MEAN_MOTION_DOT":0.00001102,"MEAN_MOTION_DDOT":0,"SEMIMAJOR_AXIS":6925.371,"PERIOD":95.593,"APOAPSIS":548.555,"PERIAPSIS":545.918,"OBJECT_TYPE":"PAYLOAD","RCS_SIZE":"LARGE","COUNTRY_CODE":"US","LAUNCH_DATE":"2021-05-26","SITE":"AFETR","DECAY_DATE":null,"DECAYED":0,"FILE":3183453,"GP_ID":188145422,"TLE_LINE0":"0 STARLINK-2717","TLE_LINE1":"1 48659U 21044X   21298.21823831  .00001102  00000-0  92870-4 0  9997","TLE_LINE2":"2 48659  53.0559  88.4525 0001904  85.9807 274.1400 15.06392588 23082"},"height_km":553.5742052911355,"latitude":-20.75123954853916,"launch":"6079bd399a06446e8c61bf77","longitude":9.443862842185819,"velocity_kms":7.5847569706178755,"version":"v1.0","id":"60b7c1567ee2f800065fcf40"},{"spaceTrack":{"CCSDS_OMM_VERS":"2.0","COMMENT":"GENERATED VIA SPACE-TRACK.ORG API","CREATION_DATE":"2021-10-26T14:26:12","ORIGINATOR":"18 SPCS","OBJECT_NAME":"STARLINK-2688","OBJECT_ID":"2021-044Y","CENTER_NAME":"EARTH","REF_FRAME":"TEME","TIME_SYSTEM":"UTC","MEAN_ELEMENT_THEORY":"SGP4","EPOCH":"2021-10-26T03:26:28.134816","MEAN_MOTION":15.06395924,"ECCENTRICITY":0.0001417,"INCLINATION":53.0556,"RA_OF_ASC_NODE":84.2955,"ARG_OF_PERICENTER":83.0216,"MEAN_ANOMALY":277.0934,"EPHEMERIS_TYPE":0,"CLASSIFICATION_TYPE":"U","NORAD_CAT_ID":48660,"ELEMENT_SET_NO":999,"REV_AT_EPOCH":2406,"BSTAR":0.00010116,"MEAN_MOTION_DOT":0.00001225,"MEAN_MOTION_DDOT":0,"SEMIMAJOR_AXIS":6925.361,"PERIOD":95.592,"APOAPSIS":548.207,"PERIAPSIS":546.245,"OBJECT_TYPE":"PAYLOAD","RCS_SIZE":"LARGE","COUNTRY_CODE":"US","LAUNCH_DATE":"2021-05-26","SITE":"AFETR","DECAY_DATE":null,"DECAYED":0,"FILE":3184560,"GP_ID":188168715,"TLE_LINE0":"0 STARLINK-2688","TLE_LINE1":"1 48660U 21044Y   21299.14338119  .00001225  00000-0  10116-3 0  9990","TLE_LINE2":"2 48660  53.0556  84.2955 0001417  83.0216 277.0934 15.06395924 24064"},"height_km":559.2721160362462,"latitude":-35.447400014639285,"launch":"6079bd399a06446e8c61bf77","longitude":25.15047560415174,"velocity_kms":7.581243601592658,"version":"v1.0","id":"60b7c1567ee2f800065fcf41"}]